CCSDS_OMM_VERS = 2.0
CREATION_DATE  = 
ORIGINATOR     = 

OBJECT_NAME    = SL-14 R/B
OBJECT_ID      = 1986-046B
CENTER_NAME    = EARTH
REF_FRAME      = TEME
TIME_SYSTEM    = UTC
MEAN_ELEMENT_THEORY = SGP/SGP4

EPOCH          = 2026-01-12T18:24:26.885376
MEAN_MOTION    = 14.85526269
ECCENTRICITY   = .0024305
INCLINATION    = 82.4834
RA_OF_ASC_NODE = 133.0136
ARG_OF_PERICENTER = 55.1042
MEAN_ANOMALY   = 305.2454

EPHEMERIS_TYPE = 0
CLASSIFICATION_TYPE = U
NORAD_CAT_ID   = 16792
ELEMENT_SET_NO = 999
REV_AT_EPOCH   = 11810
BSTAR          = .51957E-4
MEAN_MOTION_DOT = .476E-5
MEAN_MOTION_DDOT = 0

CCSDS_OMM_VERS = 2.0
CREATION_DATE  = 
ORIGINATOR     = 

OBJECT_NAME    = SL-14 R/B
OBJECT_ID      = 1986-055B
CENTER_NAME    = EARTH
REF_FRAME      = TEME
TIME_SYSTEM    = UTC
MEAN_ELEMENT_THEORY = SGP/SGP4

EPOCH          = 2026-01-12T13:31:20.086752
MEAN_MOTION    = 14.85569573
ECCENTRICITY   = .0019551
INCLINATION    = 82.5203
RA_OF_ASC_NODE = 179.4080
ARG_OF_PERICENTER = 153.9595
MEAN_ANOMALY   = 273.7695

EPHEMERIS_TYPE = 0
CLASSIFICATION_TYPE = U
NORAD_CAT_ID   = 16882
ELEMENT_SET_NO = 999
REV_AT_EPOCH   = 11103
BSTAR          = .6087E-4
MEAN_MOTION_DOT = .552E-5
MEAN_MOTION_DDOT = 0

CCSDS_OMM_VERS = 2.0
CREATION_DATE  = 
ORIGINATOR     = 

OBJECT_NAME    = AJISAI (EGS)
OBJECT_ID      = 1986-061A
CENTER_NAME    = EARTH
REF_FRAME      = TEME
TIME_SYSTEM    = UTC
MEAN_ELEMENT_THEORY = SGP/SGP4

EPOCH          = 2026-01-12T19:57:39.744000
MEAN_MOTION    = 12.44514869
ECCENTRICITY   = .0011309
INCLINATION    = 50.0085
RA_OF_ASC_NODE = 265.1132
ARG_OF_PERICENTER = 143.9727
MEAN_ANOMALY   = 329.5361

EPHEMERIS_TYPE = 0
CLASSIFICATION_TYPE = U
NORAD_CAT_ID   = 16908
ELEMENT_SET_NO = 999
REV_AT_EPOCH   = 46104
BSTAR          = .11866E-3
MEAN_MOTION_DOT = -.81E-6
MEAN_MOTION_DDOT = 0

CCSDS_OMM_VERS = 2.0
CREATION_DATE  = 
ORIGINATOR     = 

OBJECT_NAME    = COSMOS 1812
OBJECT_ID      = 1987-003A
CENTER_NAME    = EARTH
REF_FRAME      = TEME
TIME_SYSTEM    = UTC
MEAN_ELEMENT_THEORY = SGP/SGP4

EPOCH          = 2026-01-12T17:11:40.035840
MEAN_MOTION    = 15.83568388
ECCENTRICITY   = .0003158
INCLINATION    = 82.4838
RA_OF_ASC_NODE = 258.2996
ARG_OF_PERICENTER = 50.0967
MEAN_ANOMALY   = 310.0579

EPHEMERIS_TYPE = 0
CLASSIFICATION_TYPE = U
NORAD_CAT_ID   = 17295
ELEMENT_SET_NO = 999
REV_AT_EPOCH   = 13554
BSTAR          = .59138E-3
MEAN_MOTION_DOT = .130608E-2
MEAN_MOTION_DDOT = 0

CCSDS_OMM_VERS = 2.0
CREATION_DATE  = 
ORIGINATOR     = 

OBJECT_NAME    = SL-14 R/B
OBJECT_ID      = 1987-024B
CENTER_NAME    = EARTH
REF_FRAME      = TEME
TIME_SYSTEM    = UTC
MEAN_ELEMENT_THEORY = SGP/SGP4

EPOCH          = 2026-01-12T18:04:51.371904
MEAN_MOTION    = 14.86066104
ECCENTRICITY   = .0019742
INCLINATION    = 82.5297
RA_OF_ASC_NODE = 145.3214
ARG_OF_PERICENTER = 86.5004
MEAN_ANOMALY   = 273.8470

EPHEMERIS_TYPE = 0
CLASSIFICATION_TYPE = U
NORAD_CAT_ID   = 17567
ELEMENT_SET_NO = 999
REV_AT_EPOCH   = 7982
BSTAR          = .56015E-4
MEAN_MOTION_DOT = .516E-5
MEAN_MOTION_DDOT = 0

CCSDS_OMM_VERS = 2.0
CREATION_DATE  = 
ORIGINATOR     = 

OBJECT_NAME    = COSMOS 1833
OBJECT_ID      = 1987-027A
CENTER_NAME    = EARTH
REF_FRAME      = TEME
TIME_SYSTEM    = UTC
MEAN_ELEMENT_THEORY = SGP/SGP4

EPOCH          = 2026-01-12T13:58:49.907712
MEAN_MOTION    = 14.13042243
ECCENTRICITY   = .0024013
INCLINATION    = 70.9190
RA_OF_ASC_NODE = 83.9450
ARG_OF_PERICENTER = 289.1341
MEAN_ANOMALY   = 70.7180

EPHEMERIS_TYPE = 0
CLASSIFICATION_TYPE = U
NORAD_CAT_ID   = 17589
ELEMENT_SET_NO = 999
REV_AT_EPOCH   = 239
BSTAR          = .19267E-3
MEAN_MOTION_DOT = .312E-5
MEAN_MOTION_DDOT = 0

CCSDS_OMM_VERS = 2.0
CREATION_DATE  = 
ORIGINATOR     = 

OBJECT_NAME    = SL-16 R/B
OBJECT_ID      = 1987-027B
CENTER_NAME    = EARTH
REF_FRAME      = TEME
TIME_SYSTEM    = UTC
MEAN_ELEMENT_THEORY = SGP/SGP4

EPOCH          = 2026-01-12T18:56:32.243712
MEAN_MOTION    = 14.17160193
ECCENTRICITY   = .0006555
INCLINATION    = 71.0032
RA_OF_ASC_NODE = 34.2895
ARG_OF_PERICENTER = 226.4680
MEAN_ANOMALY   = 133.5900

EPHEMERIS_TYPE = 0
CLASSIFICATION_TYPE = U
NORAD_CAT_ID   = 17590
ELEMENT_SET_NO = 999
REV_AT_EPOCH   = 742
BSTAR          = .68756E-4
MEAN_MOTION_DOT = .91E-6
MEAN_MOTION_DDOT = 0

CCSDS_OMM_VERS = 2.0
CREATION_DATE  = 
ORIGINATOR     = 

OBJECT_NAME    = SL-14 R/B
OBJECT_ID      = 1987-038B
CENTER_NAME    = EARTH
REF_FRAME      = TEME
TIME_SYSTEM    = UTC
MEAN_ELEMENT_THEORY = SGP/SGP4

EPOCH          = 2026-01-12T15:39:05.829120
MEAN_MOTION    = 14.85299033
ECCENTRICITY   = .0019132
INCLINATION    = 82.5021
RA_OF_ASC_NODE = 349.5816
ARG_OF_PERICENTER = 354.8487
MEAN_ANOMALY   = 5.2528

EPHEMERIS_TYPE = 0
CLASSIFICATION_TYPE = U
NORAD_CAT_ID   = 17912
ELEMENT_SET_NO = 999
REV_AT_EPOCH   = 7091
BSTAR          = .57583E-4
MEAN_MOTION_DOT = .52E-5
MEAN_MOTION_DDOT = 0

CCSDS_OMM_VERS = 2.0
CREATION_DATE  = 
ORIGINATOR     = 

OBJECT_NAME    = COSMOS 1844
OBJECT_ID      = 1987-041A
CENTER_NAME    = EARTH
REF_FRAME      = TEME
TIME_SYSTEM    = UTC
MEAN_ELEMENT_THEORY = SGP/SGP4

EPOCH          = 2026-01-12T17:56:30.583680
MEAN_MOTION    = 14.14538721
ECCENTRICITY   = .0028335
INCLINATION    = 70.8995
RA_OF_ASC_NODE = 152.1713
ARG_OF_PERICENTER = 107.7695
MEAN_ANOMALY   = 252.6522

EPHEMERIS_TYPE = 0
CLASSIFICATION_TYPE = U
NORAD_CAT_ID   = 17973
ELEMENT_SET_NO = 999
REV_AT_EPOCH   = 99567
BSTAR          = -.6221E-4
MEAN_MOTION_DOT = -.168E-5
MEAN_MOTION_DDOT = 0

CCSDS_OMM_VERS = 2.0
CREATION_DATE  = 
ORIGINATOR     = 

OBJECT_NAME    = SL-14 R/B
OBJECT_ID      = 1987-055B
CENTER_NAME    = EARTH
REF_FRAME      = TEME
TIME_SYSTEM    = UTC
MEAN_ELEMENT_THEORY = SGP/SGP4

EPOCH          = 2026-01-12T13:42:42.563808
MEAN_MOTION    = 14.85557169
ECCENTRICITY   = .0020234
INCLINATION    = 82.4978
RA_OF_ASC_NODE = 41.9262
ARG_OF_PERICENTER = 194.9838
MEAN_ANOMALY   = 165.0782

EPHEMERIS_TYPE = 0
CLASSIFICATION_TYPE = U
NORAD_CAT_ID   = 18153
ELEMENT_SET_NO = 999
REV_AT_EPOCH   = 6160
BSTAR          = .45661E-4
MEAN_MOTION_DOT = .42E-5
MEAN_MOTION_DDOT = 0

CCSDS_OMM_VERS = 2.0
CREATION_DATE  = 
ORIGINATOR     = 

OBJECT_NAME    = COSMOS 1867
OBJECT_ID      = 1987-060A
CENTER_NAME    = EARTH
REF_FRAME      = TEME
TIME_SYSTEM    = UTC
MEAN_ELEMENT_THEORY = SGP/SGP4

EPOCH          = 2026-01-12T16:35:50.521344
MEAN_MOTION    = 14.31492471
ECCENTRICITY   = .0013826
INCLINATION    = 65.0111
RA_OF_ASC_NODE = 103.5261
ARG_OF_PERICENTER = 274.1473
MEAN_ANOMALY   = 85.8032

EPHEMERIS_TYPE = 0
CLASSIFICATION_TYPE = U
NORAD_CAT_ID   = 18187
ELEMENT_SET_NO = 999
REV_AT_EPOCH   = 1192
BSTAR          = .18756E-4
MEAN_MOTION_DOT = -.5E-6
MEAN_MOTION_DDOT = 0

CCSDS_OMM_VERS = 2.0
CREATION_DATE  = 
ORIGINATOR     = 

OBJECT_NAME    = SL-14 R/B
OBJECT_ID      = 1988-001B
CENTER_NAME    = EARTH
REF_FRAME      = TEME
TIME_SYSTEM    = UTC
MEAN_ELEMENT_THEORY = SGP/SGP4

EPOCH          = 2026-01-12T16:44:38.033088
MEAN_MOTION    = 14.85460109
ECCENTRICITY   = .0019507
INCLINATION    = 82.5116
RA_OF_ASC_NODE = 248.0307
ARG_OF_PERICENTER = 65.4584
MEAN_ANOMALY   = 294.8663

EPHEMERIS_TYPE = 0
CLASSIFICATION_TYPE = U
NORAD_CAT_ID   = 18749
ELEMENT_SET_NO = 999
REV_AT_EPOCH   = 3371
BSTAR          = .42108E-4
MEAN_MOTION_DOT = .389E-5
MEAN_MOTION_DDOT = 0

