SL-14 R/B               
1 16792U 86046B   26012.76697784  .00000476  00000+0  51957-4 0  9991
2 16792  82.4834 133.0136 0024305  55.1042 305.2454 14.85526269118106
SL-14 R/B               
1 16882U 86055B   26012.56342693  .00000552  00000+0  60870-4 0  9994
2 16882  82.5203 179.4080 0019551 153.9595 273.7695 14.85569573111032
AJISAI (EGS)            
1 16908U 86061A   26012.83171000 -.00000081  00000+0  11866-3 0  9990
2 16908  50.0085 265.1132 0011309 143.9727 329.5361 12.44514869461049
COSMOS 1812             
1 17295U 87003A   26012.71643560  .00130608  00000+0  59138-3 0  9991
2 17295  82.4838 258.2996 0003158  50.0967 310.0579 15.83568388135542
SL-14 R/B               
1 17567U 87024B   26012.75337236  .00000516  00000+0  56015-4 0  9996
2 17567  82.5297 145.3214 0019742  86.5004 273.8470 14.86066104 79820
COSMOS 1833             
1 17589U 87027A   26012.58252208  .00000312  00000+0  19267-3 0  9990
2 17589  70.9190  83.9450 0024013 289.1341  70.7180 14.13042243  2396
SL-16 R/B               
1 17590U 87027B   26012.78926208  .00000091  00000+0  68756-4 0  9994
2 17590  71.0032  34.2895 0006555 226.4680 133.5900 14.17160193  7424
SL-14 R/B               
1 17912U 87038B   26012.65215080  .00000520  00000+0  57583-4 0  9992
2 17912  82.5021 349.5816 0019132 354.8487   5.2528 14.85299033 70914
COSMOS 1844             
1 17973U 87041A   26012.74757620 -.00000168  00000+0 -62210-4 0  9997
2 17973  70.8995 152.1713 0028335 107.7695 252.6522 14.14538721995679
SL-14 R/B               
1 18153U 87055B   26012.57132597  .00000420  00000+0  45661-4 0  9994
2 18153  82.4978  41.9262 0020234 194.9838 165.0782 14.85557169 61608
COSMOS 1867             
1 18187U 87060A   26012.69155696 -.00000050  00000+0  18756-4 0  9990
2 18187  65.0111 103.5261 0013826 274.1473  85.8032 14.31492471 11922
SL-14 R/B               
1 18749U 88001B   26012.69766242  .00000389  00000+0  42108-4 0  9997
2 18749  82.5116 248.0307 0019507  65.4584 294.8663 14.85460109 33712
